[{"OBJECT_NAME":"ONEWEB-0101","OBJECT_ID":"2021-025H","EPOCH":"2026-04-09T04:52:03.217728","MEAN_MOTION":13.13468379,"ECCENTRICITY":0.0001837,"INCLINATION":87.899,"RA_OF_ASC_NODE":333.9653,"ARG_OF_PERICENTER":77.5186,"MEAN_ANOMALY":282.6149,"EPHEMERIS_TYPE":0,"CLASSIFICATION_TYPE":"U","NORAD_CAT_ID":48049,"ELEMENT_SET_NO":999,"REV_AT_EPOCH":24444,"BSTAR":-0.00042621,"MEAN_MOTION_DOT":-1.43e-06,"MEAN_MOTION_DDOT":0.0},{"OBJECT_NAME":"ONEWEB-0113","OBJECT_ID":"2021-025J","EPOCH":"2026-04-09T04:11:02.896512","MEAN_MOTION":13.13949795,"ECCENTRICITY":0.0001786,"INCLINATION":87.9001,"RA_OF_ASC_NODE":333.8875,"ARG_OF_PERICENTER":93.7086,"MEAN_ANOMALY":266.4248,"EPHEMERIS_TYPE":0,"CLASSIFICATION_TYPE":"U","NORAD_CAT_ID":48050,"ELEMENT_SET_NO":999,"REV_AT_EPOCH":24454,"BSTAR":0.00067807,"MEAN_MOTION_DOT":2.62e-06,"MEAN_MOTION_DDOT":0.0},{"OBJECT_NAME":"ONEWEB-0112","OBJECT_ID":"2021-025K","EPOCH":"2026-04-09T04:03:18.577728","MEAN_MOTION":13.13469329,"ECCENTRICITY":0.0001893,"INCLINATION":87.9,"RA_OF_ASC_NODE":333.9468,"ARG_OF_PERICENTER":75.5512,"MEAN_ANOMALY":284.5827,"EPHEMERIS_TYPE":0,"CLASSIFICATION_TYPE":"U","NORAD_CAT_ID":48051,"ELEMENT_SET_NO":999,"REV_AT_EPOCH":24453,"BSTAR":0.00073828,"MEAN_MOTION_DOT":2.82e-06,"MEAN_MOTION_DDOT":0.0},{"OBJECT_NAME":"ONEWEB-0156","OBJECT_ID":"2021-025L","EPOCH":"2026-04-09T04:15:30.077280","MEAN_MOTION":13.13468729,"ECCENTRICITY":0.0001596,"INCLINATION":87.9004,"RA_OF_ASC_NODE":333.9559,"ARG_OF_PERICENTER":78.8738,"MEAN_ANOMALY":281.2571,"EPHEMERIS_TYPE":0,"CLASSIFICATION_TYPE":"U","NORAD_CAT_ID":48052,"ELEMENT_SET_NO":999,"REV_AT_EPOCH":24451,"BSTAR":0.0010002,"MEAN_MOTION_DOT":3.78e-06,"MEAN_MOTION_DDOT":0.0},{"OBJECT_NAME":"ONEWEB-0161","OBJECT_ID":"2021-025M","EPOCH":"2026-04-09T01:49:14.316096","MEAN_MOTION":13.1346926,"ECCENTRICITY":0.0001647,"INCLINATION":87.8992,"RA_OF_ASC_NODE":333.9826,"ARG_OF_PERICENTER":76.539,"MEAN_ANOMALY":283.5923,"EPHEMERIS_TYPE":0,"CLASSIFICATION_TYPE":"U","NORAD_CAT_ID":48053,"ELEMENT_SET_NO":999,"REV_AT_EPOCH":24443,"BSTAR":-0.00023235,"MEAN_MOTION_DOT":-7.2e-07,"MEAN_MOTION_DDOT":0.0},{"OBJECT_NAME":"ONEWEB-0158","OBJECT_ID":"2021-025N","EPOCH":"2026-04-09T04:30:07.267104","MEAN_MOTION":13.13468629,"ECCENTRICITY":0.0001976,"INCLINATION":87.9002,"RA_OF_ASC_NODE":333.9538,"ARG_OF_PERICENTER":87.2435,"MEAN_ANOMALY":272.8921,"EPHEMERIS_TYPE":0,"CLASSIFICATION_TYPE":"U","NORAD_CAT_ID":48054,"ELEMENT_SET_NO":999,"REV_AT_EPOCH":24457,"BSTAR":0.00076171,"MEAN_MOTION_DOT":2.91e-06,"MEAN_MOTION_DDOT":0.0},{"OBJECT_NAME":"ONEWEB-0157","OBJECT_ID":"2021-025P","EPOCH":"2026-04-09T01:27:16.921728","MEAN_MOTION":13.13468052,"ECCENTRICITY":0.00017,"INCLINATION":87.9001,"RA_OF_ASC_NODE":333.9834,"ARG_OF_PERICENTER":67.9825,"MEAN_ANOMALY":292.1485,"EPHEMERIS_TYPE":0,"CLASSIFICATION_TYPE":"U","NORAD_CAT_ID":48055,"ELEMENT_SET_NO":999,"REV_AT_EPOCH":24449,"BSTAR":-0.00077215,"MEAN_MOTION_DOT":-2.69e-06,"MEAN_MOTION_DDOT":0.0},{"OBJECT_NAME":"ONEWEB-0162","OBJECT_ID":"2021-025Q","EPOCH":"2026-04-09T04:32:22.768224","MEAN_MOTION":13.13469223,"ECCENTRICITY":0.0001543,"INCLINATION":87.9,"RA_OF_ASC_NODE":333.962,"ARG_OF_PERICENTER":82.0613,"MEAN_ANOMALY":278.0692,"EPHEMERIS_TYPE":0,"CLASSIFICATION_TYPE":"U","NORAD_CAT_ID":48056,"ELEMENT_SET_NO":999,"REV_AT_EPOCH":24448,"BSTAR":0.0006088,"MEAN_MOTION_DOT":2.35e-06,"MEAN_MOTION_DDOT":0.0},{"OBJECT_NAME":"ONEWEB-0155","OBJECT_ID":"2021-025R","EPOCH":"2026-04-09T04:42:18.523872","MEAN_MOTION":13.13467737,"ECCENTRICITY":0.0001828,"INCLINATION":87.8995,"RA_OF_ASC_NODE":333.9577,"ARG_OF_PERICENTER":76.3069,"MEAN_ANOMALY":283.8264,"EPHEMERIS_TYPE":0,"CLASSIFICATION_TYPE":"U","NORAD_CAT_ID":48057,"ELEMENT_SET_NO":999,"REV_AT_EPOCH":24462,"BSTAR":5.592000000000001e-05,"MEAN_MOTION_DOT":3.3e-07,"MEAN_MOTION_DDOT":0.0},{"OBJECT_NAME":"ONEWEB-0149","OBJECT_ID":"2021-025S","EPOCH":"2026-04-09T01:34:36.643296","MEAN_MOTION":13.13469068,"ECCENTRICITY":0.0001514,"INCLINATION":87.9003,"RA_OF_ASC_NODE":333.9825,"ARG_OF_PERICENTER":83.7849,"MEAN_ANOMALY":276.3453,"EPHEMERIS_TYPE":0,"CLASSIFICATION_TYPE":"U","NORAD_CAT_ID":48058,"ELEMENT_SET_NO":999,"REV_AT_EPOCH":24441,"BSTAR":-0.00080754,"MEAN_MOTION_DOT":-2.82e-06,"MEAN_MOTION_DDOT":0.0},{"OBJECT_NAME":"ONEWEB-0148","OBJECT_ID":"2021-025T","EPOCH":"2026-04-09T04:20:22.872192","MEAN_MOTION":13.13468156,"ECCENTRICITY":0.0001129,"INCLINATION":87.8995,"RA_OF_ASC_NODE":333.9721,"ARG_OF_PERICENTER":79.1196,"MEAN_ANOMALY":281.006,"EPHEMERIS_TYPE":0,"CLASSIFICATION_TYPE":"U","NORAD_CAT_ID":48059,"ELEMENT_SET_NO":999,"REV_AT_EPOCH":24455,"BSTAR":0.00095585,"MEAN_MOTION_DOT":3.62e-06,"MEAN_MOTION_DDOT":0.0},{"OBJECT_NAME":"ONEWEB-0160","OBJECT_ID":"2021-025U","EPOCH":"2026-04-09T04:44:45.000384","MEAN_MOTION":13.13470255,"ECCENTRICITY":0.0002159,"INCLINATION":87.8996,"RA_OF_ASC_NODE":333.9647,"ARG_OF_PERICENTER":100.503,"MEAN_ANOMALY":259.6343,"EPHEMERIS_TYPE":0,"CLASSIFICATION_TYPE":"U","NORAD_CAT_ID":48060,"ELEMENT_SET_NO":999,"REV_AT_EPOCH":24450,"BSTAR":-0.00019967,"MEAN_MOTION_DOT":-6e-07,"MEAN_MOTION_DDOT":0.0},{"OBJECT_NAME":"ONEWEB-0163","OBJECT_ID":"2021-025V","EPOCH":"2026-04-09T04:22:48.477792","MEAN_MOTION":13.13468875,"ECCENTRICITY":0.0001685,"INCLINATION":87.8998,"RA_OF_ASC_NODE":333.9611,"ARG_OF_PERICENTER":71.42,"MEAN_ANOMALY":288.7112,"EPHEMERIS_TYPE":0,"CLASSIFICATION_TYPE":"U","NORAD_CAT_ID":48061,"ELEMENT_SET_NO":999,"REV_AT_EPOCH":24462,"BSTAR":0.0009001400000000001,"MEAN_MOTION_DOT":3.41e-06,"MEAN_MOTION_DDOT":0.0},{"OBJECT_NAME":"ONEWEB-0159","OBJECT_ID":"2021-025W","EPOCH":"2026-04-09T04:10:37.625376","MEAN_MOTION":13.13469156,"ECCENTRICITY":0.0001548,"INCLINATION":87.9008,"RA_OF_ASC_NODE":333.9515,"ARG_OF_PERICENTER":75.2967,"MEAN_ANOMALY":284.8334,"EPHEMERIS_TYPE":0,"CLASSIFICATION_TYPE":"U","NORAD_CAT_ID":48062,"ELEMENT_SET_NO":999,"REV_AT_EPOCH":24454,"BSTAR":0.00093717,"MEAN_MOTION_DOT":3.55e-06,"MEAN_MOTION_DDOT":0.0},{"OBJECT_NAME":"ONEWEB-0164","OBJECT_ID":"2021-025X","EPOCH":"2026-04-09T01:54:06.844032","MEAN_MOTION":13.13468968,"ECCENTRICITY":0.0001817,"INCLINATION":87.9002,"RA_OF_ASC_NODE":333.9766,"ARG_OF_PERICENTER":83.1993,"MEAN_ANOMALY":276.9343,"EPHEMERIS_TYPE":0,"CLASSIFICATION_TYPE":"U","NORAD_CAT_ID":48063,"ELEMENT_SET_NO":999,"REV_AT_EPOCH":24451,"BSTAR":3.1456000000000005e-05,"MEAN_MOTION_DOT":2.4e-07,"MEAN_MOTION_DDOT":0.0},{"OBJECT_NAME":"ONEWEB-0167","OBJECT_ID":"2021-025Y","EPOCH":"2026-04-09T04:24:01.973952","MEAN_MOTION":13.13468453,"ECCENTRICITY":0.000222,"INCLINATION":87.8996,"RA_OF_ASC_NODE":333.9725,"ARG_OF_PERICENTER":68.1996,"MEAN_ANOMALY":291.937,"EPHEMERIS_TYPE":0,"CLASSIFICATION_TYPE":"U","NORAD_CAT_ID":48064,"ELEMENT_SET_NO":999,"REV_AT_EPOCH":24451,"BSTAR":0.00097893,"MEAN_MOTION_DOT":3.7e-06,"MEAN_MOTION_DDOT":0.0},{"OBJECT_NAME":"ONEWEB-0166","OBJECT_ID":"2021-025Z","EPOCH":"2026-04-09T04:56:56.367744","MEAN_MOTION":13.13469079,"ECCENTRICITY":0.0001524,"INCLINATION":87.8999,"RA_OF_ASC_NODE":333.9329,"ARG_OF_PERICENTER":79.7893,"MEAN_ANOMALY":280.3408,"EPHEMERIS_TYPE":0,"CLASSIFICATION_TYPE":"U","NORAD_CAT_ID":48065,"ELEMENT_SET_NO":999,"REV_AT_EPOCH":24459,"BSTAR":-0.00055189,"MEAN_MOTION_DOT":-1.89e-06,"MEAN_MOTION_DDOT":0.0},{"OBJECT_NAME":"ONEWEB-0151","OBJECT_ID":"2021-025AA","EPOCH":"2026-04-09T04:59:21.861888","MEAN_MOTION":13.13468336,"ECCENTRICITY":0.0001864,"INCLINATION":87.8997,"RA_OF_ASC_NODE":333.9565,"ARG_OF_PERICENTER":79.7553,"MEAN_ANOMALY":280.3787,"EPHEMERIS_TYPE":0,"CLASSIFICATION_TYPE":"U","NORAD_CAT_ID":48066,"ELEMENT_SET_NO":999,"REV_AT_EPOCH":24453,"BSTAR":-0.0007696,"MEAN_MOTION_DOT":-2.68e-06,"MEAN_MOTION_DDOT":0.0},{"OBJECT_NAME":"ONEWEB-0170","OBJECT_ID":"2021-025AB","EPOCH":"2026-04-09T01:32:10.479552","MEAN_MOTION":13.13469018,"ECCENTRICITY":0.0002178,"INCLINATION":87.8995,"RA_OF_ASC_NODE":333.9867,"ARG_OF_PERICENTER":86.2429,"MEAN_ANOMALY":273.8949,"EPHEMERIS_TYPE":0,"CLASSIFICATION_TYPE":"U","NORAD_CAT_ID":48067,"ELEMENT_SET_NO":999,"REV_AT_EPOCH":24447,"BSTAR":-0.0007769399999999999,"MEAN_MOTION_DOT":-2.71e-06,"MEAN_MOTION_DDOT":0.0},{"OBJECT_NAME":"ONEWEB-0168","OBJECT_ID":"2021-025AC","EPOCH":"2026-04-09T04:49:37.651008","MEAN_MOTION":13.13468233,"ECCENTRICITY":0.0001644,"INCLINATION":87.9003,"RA_OF_ASC_NODE":333.953,"ARG_OF_PERICENTER":75.0453,"MEAN_ANOMALY":285.0858,"EPHEMERIS_TYPE":0,"CLASSIFICATION_TYPE":"U","NORAD_CAT_ID":48068,"ELEMENT_SET_NO":999,"REV_AT_EPOCH":24450,"BSTAR":-0.00027629,"MEAN_MOTION_DOT":-8.8e-07,"MEAN_MOTION_DDOT":0.0},{"OBJECT_NAME":"ONEWEB-0173","OBJECT_ID":"2021-025AD","EPOCH":"2026-04-09T04:37:25.927680","MEAN_MOTION":13.13467918,"ECCENTRICITY":0.0001833,"INCLINATION":87.8999,"RA_OF_ASC_NODE":333.9605,"ARG_OF_PERICENTER":69.3033,"MEAN_ANOMALY":290.8293,"EPHEMERIS_TYPE":0,"CLASSIFICATION_TYPE":"U","NORAD_CAT_ID":48069,"ELEMENT_SET_NO":999,"REV_AT_EPOCH":24474,"BSTAR":0.00034877000000000004,"MEAN_MOTION_DOT":1.4e-06,"MEAN_MOTION_DDOT":0.0},{"OBJECT_NAME":"ONEWEB-0171","OBJECT_ID":"2021-025AE","EPOCH":"2026-04-09T01:51:40.601664","MEAN_MOTION":13.1346967,"ECCENTRICITY":0.000184,"INCLINATION":87.8993,"RA_OF_ASC_NODE":333.9934,"ARG_OF_PERICENTER":81.2255,"MEAN_ANOMALY":278.9083,"EPHEMERIS_TYPE":0,"CLASSIFICATION_TYPE":"U","NORAD_CAT_ID":48070,"ELEMENT_SET_NO":999,"REV_AT_EPOCH":24454,"BSTAR":-0.00010365000000000001,"MEAN_MOTION_DOT":-2.5e-07,"MEAN_MOTION_DDOT":0.0},{"OBJECT_NAME":"ONEWEB-0172","OBJECT_ID":"2021-025AF","EPOCH":"2026-04-09T05:01:48.268416","MEAN_MOTION":13.1346896,"ECCENTRICITY":0.0001835,"INCLINATION":87.8992,"RA_OF_ASC_NODE":333.955,"ARG_OF_PERICENTER":77.0954,"MEAN_ANOMALY":283.038,"EPHEMERIS_TYPE":0,"CLASSIFICATION_TYPE":"U","NORAD_CAT_ID":48071,"ELEMENT_SET_NO":999,"REV_AT_EPOCH":24545,"BSTAR":-0.00075723,"MEAN_MOTION_DOT":-2.64e-06,"MEAN_MOTION_DDOT":0.0}]